#aV2008  3  1  0  0   .00000000      96 DD+AD WGS84 FIT  NGA
## 1468 518400.00000000   900.00000000 54526  .0000000000000
+   31     1  2  3  4  5  6  8  9 10 11 12 13 14 15 16 17 18
+         19 20 21 22 23 24 25 26 27 28 29 30 31 32  0  0  0
+          0  0  0  0  0  0  0  0  0  0  0  0  0  0  0  0  0
+          0  0  0  0  0  0  0  0  0  0  0  0  0  0  0  0  0
+          0  0  0  0  0  0  0  0  0  0  0  0  0  0  0  0  0
++         0  0  0  0  0  0  0  0  0  0  0  0  0  0  0  0  0
++         0  0  0  0  0  0  0  0  0  0  0  0  0  0  0  0  0
++         0  0  0  0  0  0  0  0  0  0  0  0  0  0  0  0  0
++         0  0  0  0  0  0  0  0  0  0  0  0  0  0  0  0  0
++         0  0  0  0  0  0  0  0  0  0  0  0  0  0  0  0  0
%c cc cc ccc ccc cccc cccc cccc cccc ccccc ccccc ccccc ccccc
%c cc cc ccc ccc cccc cccc cccc cccc ccccc ccccc ccccc ccccc
%f  0.0000000  0.000000000  0.00000000000  0.000000000000000
%f  0.0000000  0.000000000  0.00000000000  0.000000000000000
%i    0    0    0    0      0      0      0      0         0
%i    0    0    0    0      0      0      0      0         0
/*      NGA, ST. LOUIS,MO.                                  
/*   EPHEMERIS COMPUTED FROM  3 DAYS OF DATA                
/* CCCCCCCCCCCCCCCCCCCCCCCCCCCCCCCCCCCCCCCCCCCCCCCCCCCCCCCCC
/* CCCCCCCCCCCCCCCCCCCCCCCCCCCCCCCCCCCCCCCCCCCCCCCCCCCCCCCCC
*  2008  3  1  4 30   .00000000                                                 
P  1  17973.882486 -19497.369694    601.258924    189.140970                    
V  1   1717.399983    946.809289 -32455.678343       .026142                    
P  2  -8584.694769  13791.542009  20779.418448    178.455210                    
V  2 -26360.717474  -5553.611212  -7472.828235       .030789                    
P  3   8570.869553 -23612.514600  -8317.108102    194.220163                    
V  3   9019.772914  -6412.240406  28698.405395       .052560                    
P  4 -20476.163716   7398.345658  15361.996497    -17.895059                    
V  4 -18815.540409  -5830.508229 -21770.008739      -.069520                    
P  5  16053.922319  19129.834533   8984.297756    707.012753                    
V  5   2171.842553  11955.241728 -28362.313508       .129212                    
P  6  20494.108929  -8192.192556  15003.832326     44.747497                    
V  6  -9575.286881  16363.283489  22227.556469       .166112                    
P  8 -25206.434632    356.492764  -9168.249347   -143.064754                    
V  8 -10691.175832  -4134.013425  29058.209849      -.015397                    
P  9  14693.978109  14300.853494 -17594.479152    112.984610                    
V  9 -21019.508624  -1735.009781 -19499.451956       .019085                    
P 10   -253.957310  23880.326252  11125.732379   -254.247040                    
V 10  -6980.300816 -12904.423921  27544.891756      -.032800                    
P 11 -18120.456955 -12313.827095 -15374.631613     26.947855                    
V 11  19362.475834  -3197.192480 -20131.105554      -.001099                    
P 12  12382.802045  22856.081479   5752.147280   -357.420203                    
V 12     -9.492067   7609.102567 -30638.462865      -.006286                    
P 13 -16832.593986  -1286.790923  20387.063042    242.957333                    
V 13  17190.709667 -19592.210385  12916.376803       .020763                    
P 14  20627.972982 -13510.472664  -9648.426599   -292.434520                    
V 14  -6924.279262  10433.401479 -29196.416352       .038293                    
P 15  -1594.532348  20461.954931 -16831.846978    -81.004192                    
V 15 -15107.968813  15313.375869  20015.867428      -.034532                    
P 16   3660.792187 -21579.138033  14986.845339    132.423890                    
V 16   8016.296415  17309.781034  23262.565146      -.005756                    
P 17 -20686.602916  13110.671554 -10054.698882     41.738886                    
V 17   6421.073053 -11453.060417 -28220.266094      -.005686                    
P 18  16741.441083   9304.110464 -18373.286607   -200.239877                    
V 18   5654.434717  22957.863432  16278.065391       .031836                    
P 19   2318.485087 -19854.868986 -17319.447352     22.632630                    
V 19  16848.388595 -14625.424769  19095.665562       .013604                    
P 20 -13800.920672 -21400.608529   7523.112442    119.546261                    
V 20   -612.801731 -10141.693648 -29471.965479      -.007703                    
P 21  26365.964048   5265.380296   -357.233513     70.588796                    
V 21     -3.105213   3126.573219  30818.316808      -.008376                    
P 22  14046.354242  -6681.033420 -21373.663040    209.131794                    
V 22   8409.070678  26244.201839  -2697.549485       .003864                    
P 23  -7438.608349 -13763.231529  21362.993550    337.757165                    
V 23  18201.807961 -20342.468658  -6971.393361       .027301                    
P 24  19960.045200  13095.762196  11502.942098     74.516762                    
V 24 -14714.376646   -628.333651  26925.339713       .030516                    
P 25 -23312.385210  -8600.721964   9485.873136    520.738037                    
V 25  11753.956884  -1540.595887  28770.898453       .075117                    
P 26  -5095.242181  20736.985960 -15883.346090    196.319447                    
V 26 -14305.681191  13305.006633  23168.597720       .096418                    
P 27 -26184.403564  -4684.059095   2232.217407    171.246305                    
V 27   2279.346755  -2164.927221  31645.347436       .025537                    
P 28 -14634.961982   3417.134148 -21536.453476    -15.858510                    
V 28  -8810.354228 -26813.665488   1368.088757      -.006329                    
P 29  15168.748767   5300.599990  21260.684670    -53.920518                    
V 29 -17195.518997  20479.632733   7227.063069       .041443                    
P 30  16913.690555  14247.179774  14451.107027     65.853223                    
V 30   4821.725263  18450.340426 -23201.368146       .014658                    
P 31  18408.329419  -8831.685321  17251.831939    -11.077557                    
V 31  20848.863049   5250.846420 -19703.890557      -.014247                    
P 32   7463.629073 -18310.328815 -17396.123837    240.006792                    
V 32   7335.816334  21690.277435 -19043.232890       .085184                    
EOF
